{
  "links" : {
    "next" : "https://api.nasa.gov/neo/rest/v1/feed?start_date=2005-02-23&end_date=2005-02-23&detailed=true&api_key=t0TVs3DtDT2H8Oy2Zy8m2eVrNsAVKAexjcZXUckd",
    "prev" : "https://api.nasa.gov/neo/rest/v1/feed?start_date=2005-02-21&end_date=2005-02-21&detailed=true&api_key=t0TVs3DtDT2H8Oy2Zy8m2eVrNsAVKAexjcZXUckd",
    "self" : "https://api.nasa.gov/neo/rest/v1/feed?start_date=2005-02-22&end_date=2005-02-22&detailed=true&api_key=t0TVs3DtDT2H8Oy2Zy8m2eVrNsAVKAexjcZXUckd"
  },
  "element_count" : 2,
  "near_earth_objects" : {
    "2005-02-22" : [ {
      "links" : {
        "self" : "https://api.nasa.gov/neo/rest/v1/neo/3763940?api_key=t0TVs3DtDT2H8Oy2Zy8m2eVrNsAVKAexjcZXUckd"
      },
      "neo_reference_id" : "3763940",
      "name" : "(2016 WR)",
      "nasa_jpl_url" : "http://ssd.jpl.nasa.gov/sbdb.cgi?sstr=3763940",
      "absolute_magnitude_h" : 26.5,
      "estimated_diameter" : {
        "kilometers" : {
          "estimated_diameter_min" : 0.0133215567,
          "estimated_diameter_max" : 0.0297879063
        },
        "meters" : {
          "estimated_diameter_min" : 13.3215566698,
          "estimated_diameter_max" : 29.7879062798
        },
        "miles" : {
          "estimated_diameter_min" : 0.008277629,
          "estimated_diameter_max" : 0.0185093411
        },
        "feet" : {
          "estimated_diameter_min" : 43.7058959846,
          "estimated_diameter_max" : 97.7293544391
        }
      },
      "is_potentially_hazardous_asteroid" : false,
      "close_approach_data" : [ {
        "close_approach_date" : "2005-02-22",
        "epoch_date_close_approach" : 1109059200000,
        "relative_velocity" : {
          "kilometers_per_second" : "13.295912354",
          "kilometers_per_hour" : "47865.284474539",
          "miles_per_hour" : "29741.6263447489"
        },
        "miss_distance" : {
          "astronomical" : "0.1580242844",
          "lunar" : "61.471446991",
          "kilometers" : "23640096",
          "miles" : "14689275"
        },
        "orbiting_body" : "Earth"
      } ],
      "orbital_data" : {
        "orbit_id" : "3",
        "orbit_determination_date" : "2017-04-06 08:22:07",
        "orbit_uncertainty" : "7",
        "minimum_orbit_intersection" : ".00889873",
        "jupiter_tisserand_invariant" : "6.531",
        "epoch_osculation" : "2458000.5",
        "eccentricity" : ".282480424230551",
        "semi_major_axis" : ".9081115140733281",
        "inclination" : "1.853719810238985",
        "ascending_node_longitude" : "60.25549593612394",
        "orbital_period" : "316.0874116378975",
        "perihelion_distance" : ".6515877883292465",
        "perihelion_argument" : "220.1731284031131",
        "aphelion_distance" : "1.16463523981741",
        "perihelion_time" : "2457931.167574463590",
        "mean_anomaly" : "78.96446449345055",
        "mean_motion" : "1.138925457785734",
        "equinox" : "J2000"
      }
    }, {
      "links" : {
        "self" : "https://api.nasa.gov/neo/rest/v1/neo/3763337?api_key=t0TVs3DtDT2H8Oy2Zy8m2eVrNsAVKAexjcZXUckd"
      },
      "neo_reference_id" : "3763337",
      "name" : "(2016 VX1)",
      "nasa_jpl_url" : "http://ssd.jpl.nasa.gov/sbdb.cgi?sstr=3763337",
      "absolute_magnitude_h" : 25.0,
      "estimated_diameter" : {
        "kilometers" : {
          "estimated_diameter_min" : 0.02658,
          "estimated_diameter_max" : 0.0594346868
        },
        "meters" : {
          "estimated_diameter_min" : 26.58,
          "estimated_diameter_max" : 59.4346868419
        },
        "miles" : {
          "estimated_diameter_min" : 0.0165160412,
          "estimated_diameter_max" : 0.0369309908
        },
        "feet" : {
          "estimated_diameter_min" : 87.2047272,
          "estimated_diameter_max" : 194.9956979785
        }
      },
      "is_potentially_hazardous_asteroid" : false,
      "close_approach_data" : [ {
        "close_approach_date" : "2005-02-22",
        "epoch_date_close_approach" : 1109059200000,
        "relative_velocity" : {
          "kilometers_per_second" : "19.5185100592",
          "kilometers_per_hour" : "70266.6362131016",
          "miles_per_hour" : "43660.9551514131"
        },
        "miss_distance" : {
          "astronomical" : "0.4369927108",
          "lunar" : "169.9901580811",
          "kilometers" : "65373180",
          "miles" : "40621008"
        },
        "orbiting_body" : "Earth"
      } ],
      "orbital_data" : {
        "orbit_id" : "10",
        "orbit_determination_date" : "2017-07-07 16:04:01",
        "orbit_uncertainty" : "4",
        "minimum_orbit_intersection" : ".00218411",
        "jupiter_tisserand_invariant" : "5.142",
        "epoch_osculation" : "2458000.5",
        "eccentricity" : ".5388178747781476",
        "semi_major_axis" : "1.200463982741062",
        "inclination" : "3.504193203638053",
        "ascending_node_longitude" : "54.41998872305042",
        "orbital_period" : "480.4211612962597",
        "perihelion_distance" : ".5536325308128121",
        "perihelion_argument" : "102.7769111047478",
        "aphelion_distance" : "1.847295434669311",
        "perihelion_time" : "2457761.893287879288",
        "mean_anomaly" : "178.7981531281586",
        "mean_motion" : ".7493425123669771",
        "equinox" : "J2000"
      }
    } ]
  }
}